[{"OBJECT_NAME":"FLOCK 4H-31","OBJECT_ID":"2025-276BW","EPOCH":"2026-03-09T04:12:33.777216","MEAN_MOTION":15.18403847,"ECCENTRICITY":0.00040262,"INCLINATION":97.4236,"RA_OF_ASC_NODE":143.3458,"ARG_OF_PERICENTER":29.5854,"MEAN_ANOMALY":330.5607,"EPHEMERIS_TYPE":0,"CLASSIFICATION_TYPE":"U","NORAD_CAT_ID":66734,"ELEMENT_SET_NO":999,"REV_AT_EPOCH":1523,"BSTAR":0.00041894151,"MEAN_MOTION_DOT":8.555e-5,"MEAN_MOTION_DDOT":0},{"OBJECT_NAME":"SL-3 R\/B","OBJECT_ID":"1981-103B","EPOCH":"2026-03-09T21:41:31.338816","MEAN_MOTION":15.21379038,"ECCENTRICITY":0.00124427,"INCLINATION":81.1587,"RA_OF_ASC_NODE":213.1807,"ARG_OF_PERICENTER":286.2286,"MEAN_ANOMALY":73.7576,"EPHEMERIS_TYPE":0,"CLASSIFICATION_TYPE":"U","NORAD_CAT_ID":12904,"ELEMENT_SET_NO":999,"REV_AT_EPOCH":97326,"BSTAR":0.00027179641,"MEAN_MOTION_DOT":6.129e-5,"MEAN_MOTION_DDOT":0}]
